LANDSAT 9               
1 49260U 21088A   23350.20577063  .00000509  00000+0  12294-3 0  9997
2 49260  98.2113  57.7347 0001204  89.0634 271.0702 14.57103966117906
